{
  "norad_id": 62261,
  "name": "SENTINEL-1C",
  "history": [
    {
      "epoch": "2026-03-28T05:06:04.790016Z",
      "apogee_km": 696.7134593511546,
      "perigee_km": 694.8035075706193,
      "latitude_deg": -3.193044416750326e-05,
      "longitude_deg": -166.48189369347762,
      "height_km": 698.754814379741,
      "semi_major_axis_km": 7073.895483460887,
      "eccentricity": 0.000135,
      "inclination_deg": 98.1823,
      "raan_deg": 95.6743,
      "arg_perigee_deg": 90.833,
      "mean_anomaly_deg": 269.3024,
      "mean_motion_rev_day": 14.59199942
    }
  ]
}