{"fetched_at":"2026-03-29T16:36:15Z","count":15609,"tles":[{"name":"SENTINEL-1C","line1":"1 62261U 24235A   26087.21255544  .00000170  00000+0  45737-4 0  9991","line2":"2 62261  98.1823  95.6743 0001350  90.8330 269.3024 14.59199942 69606","category":"Other"}]}